[{"OBJECT_NAME":"OBJECT M","OBJECT_ID":"2024-205M","EPOCH":"2026-03-09T22:23:47.520096","MEAN_MOTION":15.27663844,"ECCENTRICITY":0.00036602,"INCLINATION":97.3915,"RA_OF_ASC_NODE":144.193,"ARG_OF_PERICENTER":310.2554,"MEAN_ANOMALY":49.8364,"EPHEMERIS_TYPE":0,"CLASSIFICATION_TYPE":"U","NORAD_CAT_ID":61905,"ELEMENT_SET_NO":999,"REV_AT_EPOCH":7334,"BSTAR":0.00036391974,"MEAN_MOTION_DOT":9.771e-5,"MEAN_MOTION_DDOT":0},{"OBJECT_NAME":"STARLINK-33927","OBJECT_ID":"2025-101H","EPOCH":"2026-03-09T04:32:42.873504","MEAN_MOTION":15.27579595,"ECCENTRICITY":0.00016104,"INCLINATION":43.0025,"RA_OF_ASC_NODE":1.2321,"ARG_OF_PERICENTER":249.4003,"MEAN_ANOMALY":110.6676,"EPHEMERIS_TYPE":0,"CLASSIFICATION_TYPE":"U","NORAD_CAT_ID":64001,"ELEMENT_SET_NO":999,"REV_AT_EPOCH":4697,"BSTAR":0.0013864387,"MEAN_MOTION_DOT":0.00038087,"MEAN_MOTION_DDOT":0}]
